[{"OBJECT_NAME":"STARLINK-31421","OBJECT_ID":"2024-046T","EPOCH":"2026-03-09T13:26:08.454912","MEAN_MOTION":15.30185382,"ECCENTRICITY":9.45e-5,"INCLINATION":53.1614,"RA_OF_ASC_NODE":155.6822,"ARG_OF_PERICENTER":117.4046,"MEAN_ANOMALY":242.7051,"EPHEMERIS_TYPE":0,"CLASSIFICATION_TYPE":"U","NORAD_CAT_ID":59218,"ELEMENT_SET_NO":999,"REV_AT_EPOCH":11302,"BSTAR":3.0686e-5,"MEAN_MOTION_DOT":5.5e-6,"MEAN_MOTION_DDOT":0},{"OBJECT_NAME":"JINJUSAT-1B","OBJECT_ID":"2025-052A","EPOCH":"2026-03-09T15:55:38.242848","MEAN_MOTION":15.30194857,"ECCENTRICITY":0.00055504,"INCLINATION":97.4113,"RA_OF_ASC_NODE":325.4613,"ARG_OF_PERICENTER":82.193,"MEAN_ANOMALY":277.9941,"EPHEMERIS_TYPE":0,"CLASSIFICATION_TYPE":"U","NORAD_CAT_ID":63210,"ELEMENT_SET_NO":999,"REV_AT_EPOCH":5486,"BSTAR":0.00068430401,"MEAN_MOTION_DOT":0.00019955,"MEAN_MOTION_DDOT":0}]
